OBJECT_NAME,OBJECT_ID,EPOCH,MEAN_MOTION,ECCENTRICITY,INCLINATION,RA_OF_ASC_NODE,ARG_OF_PERICENTER,MEAN_ANOMALY,EPHEMERIS_TYPE,CLASSIFICATION_TYPE,NORAD_CAT_ID,ELEMENT_SET_NO,REV_AT_EPOCH,BSTAR,MEAN_MOTION_DOT,MEAN_MOTION_DDOT
GSAT0233 (GALILEO 33),2025-302A,2026-05-09T12:25:01.238880,1.70474487,.00020154,54.3112,103.2321,243.6096,300.2883,0,U,67160,999,246,0,.52E-6,0
GSAT0234 (GALILEO 34),2025-302C,2026-05-07T10:38:26.222784,1.70474609,.00038227,54.3113,103.2900,293.6003,237.5257,0,U,67162,999,248,0,.41E-6,0
